OBJECT_NAME,OBJECT_ID,EPOCH,MEAN_MOTION,ECCENTRICITY,INCLINATION,RA_OF_ASC_NODE,ARG_OF_PERICENTER,MEAN_ANOMALY,EPHEMERIS_TYPE,CLASSIFICATION_TYPE,NORAD_CAT_ID,ELEMENT_SET_NO,REV_AT_EPOCH,BSTAR,MEAN_MOTION_DOT,MEAN_MOTION_DDOT
ONEWEB-0225,2021-045AJ,2026-06-16T18:06:16.434432,13.15548441,.0001485,87.9006,259.2843,110.4707,249.6582,0,U,48799,999,24436,-.20495E-3,-.64E-6,0
ONEWEB-0215,2021-045AK,2026-06-16T17:22:53.802912,13.15547005,.0001475,87.9015,259.2726,117.6085,242.5195,0,U,48800,999,24423,-.19706E-4,.5E-7,0
ONEWEB-0216,2021-045AL,2026-06-16T17:36:36.717120,13.15549008,.0001967,87.9011,259.2855,98.3792,261.7561,0,U,48801,999,24424,-.16898E-3,-.51E-6,0
ONEWEB-0239,2021-045AM,2026-06-16T17:43:27.022944,13.15548787,.0001669,87.9000,259.2910,125.0143,235.1145,0,U,48802,999,24428,-.253E-3,-.82E-6,0
ONEWEB-0249,2021-060A,2026-06-16T16:08:59.201088,13.16595017,.0002073,87.9099,228.8804,101.5231,258.6132,0,U,48967,999,23954,-.10463E-3,-.27E-6,0
ONEWEB-0250,2021-060B,2026-06-16T20:30:48.686688,13.25833909,.0002819,87.9097,226.6016,114.1146,246.0285,0,U,48968,999,24017,.91278E-5,.17E-6,0
ONEWEB-0252,2021-060D,2026-06-16T16:53:27.043872,13.16594057,.0001895,87.9097,228.8663,92.1493,267.9854,0,U,48970,999,23959,.94783E-4,.49E-6,0
ONEWEB-0253,2021-060E,2026-06-16T16:37:29.502048,13.16593914,.000206,87.9097,228.8740,101.3919,258.7443,0,U,48971,999,23952,.17807E-3,.81E-6,0
ONEWEB-0254,2021-060F,2026-06-16T16:51:10.352160,13.16594626,.0001886,87.9100,228.8696,106.4248,253.7091,0,U,48972,999,23952,.12503E-3,.61E-6,0
ONEWEB-0255,2021-060G,2026-06-16T15:56:27.257568,13.16594591,.0001917,87.9098,228.8840,101.7118,258.4228,0,U,48973,999,23959,-.13046E-3,-.37E-6,0
ONEWEB-0256,2021-060H,2026-06-16T16:34:03.763776,13.16593728,.0002059,87.9093,228.8828,94.3701,265.7666,0,U,48974,999,23956,.23907E-3,.104E-5,0
ONEWEB-0257,2021-060J,2026-06-16T17:20:48.218784,13.16594947,.0001882,87.9098,228.8634,97.6055,262.5290,0,U,48975,999,23952,-.1567E-3,-.47E-6,0
ONEWEB-0258,2021-060K,2026-06-16T17:23:05.235360,13.16595057,.0002041,87.9099,228.8747,99.3059,260.8303,0,U,48976,999,23953,-.17155E-3,-.53E-6,0
ONEWEB-0259,2021-060L,2026-06-16T17:13:58.243872,13.16595337,.0002039,87.9097,228.8754,103.3073,256.8285,0,U,48977,999,23956,-.1084E-3,-.29E-6,0
ONEWEB-0260,2021-060M,2026-06-16T20:40:17.665248,13.16594076,.0001971,87.9092,228.8488,86.4482,273.6874,0,U,48978,999,23956,.15068E-3,.7E-6,0
ONEWEB-0261,2021-060N,2026-06-16T16:18:04.830912,13.16595202,.0001681,87.9093,228.8850,100.2126,259.9195,0,U,48979,999,23959,-.27207E-3,-.91E-6,0
ONEWEB-0262,2021-060P,2026-06-16T15:49:36.685632,13.16594640,.0002087,87.9096,228.8750,106.0698,254.0663,0,U,48980,999,23955,-.17224E-3,-.53E-6,0
ONEWEB-0263,2021-060Q,2026-06-16T16:35:12.487200,13.16594835,.0001733,87.9098,228.8802,103.7954,256.3370,0,U,48981,999,23952,.18161E-3,.82E-6,0
ONEWEB-0264,2021-060R,2026-06-16T15:39:21.265344,13.16595947,.0001824,87.9101,228.8902,93.3410,266.7929,0,U,48982,999,23952,-.23148E-3,-.76E-6,0
ONEWEB-0266,2021-060T,2026-06-16T16:10:07.985856,13.16594044,.000214,87.9099,228.8772,98.6909,261.4465,0,U,48984,999,23951,-.29604E-3,-.1E-5,0
ONEWEB-0267,2021-060U,2026-06-16T16:26:05.557920,13.16594593,.0001826,87.9098,228.8716,98.4785,261.6552,0,U,48985,999,23952,.15043E-4,.19E-6,0
ONEWEB-0268,2021-060V,2026-06-16T15:40:28.199424,13.16596278,.0002027,87.9104,228.8866,92.8692,267.2670,0,U,48986,999,23978,-.16056E-3,-.49E-6,0
ONEWEB-0269,2021-060W,2026-06-16T20:41:26.367936,13.16595262,.0002169,87.9090,228.8484,93.1786,266.9593,0,U,48987,999,23958,.19143E-3,.86E-6,0
ONEWEB-0270,2021-060X,2026-06-16T15:38:12.856416,13.16594990,.0001842,87.9104,228.8892,107.0903,253.0429,0,U,48988,999,23959,-.21268E-3,-.68E-6,0
ONEWEB-0271,2021-060Y,2026-06-16T17:09:24.640128,13.16595083,.000179,87.9097,228.8668,101.0272,259.1060,0,U,48989,999,23960,-.30827E-4,.1E-7,0
ONEWEB-0272,2021-060Z,2026-06-16T15:51:52.767360,13.16592626,.0001854,87.9096,228.8897,91.0313,269.1030,0,U,48990,999,23954,-.15899E-3,-.48E-6,0
ONEWEB-0273,2021-060AA,2026-06-16T16:23:48.666624,13.16594579,.0001922,87.9100,228.8842,100.9260,259.2087,0,U,48991,999,23952,.59287E-4,.36E-6,0
ONEWEB-0274,2021-060AB,2026-06-16T20:39:09.163008,13.16594293,.0001922,87.9089,228.8515,89.0484,271.0867,0,U,48992,999,23958,.23146E-3,.101E-5,0
ONEWEB-0275,2021-060AC,2026-06-16T16:44:20.208768,13.16594250,.0001918,87.9098,228.8729,95.9768,264.1581,0,U,48993,999,23949,.14019E-3,.66E-6,0
ONEWEB-0276,2021-060AD,2026-06-16T15:42:46.194048,13.16594395,.0001968,87.9097,228.8808,92.9241,267.2115,0,U,48994,999,23950,-.14782E-3,-.44E-6,0
