ONEWEB-0225             
1 48799U 21045AJ  26167.75435688 -.00000064  00000+0 -20495-3 0  9991
2 48799  87.9006 259.2843 0001485 110.4707 249.6582 13.15548441244361
ONEWEB-0215             
1 48800U 21045AK  26167.72423383  .00000005  00000+0 -19706-4 0  9998
2 48800  87.9015 259.2726 0001475 117.6085 242.5195 13.15547005244234
ONEWEB-0216             
1 48801U 21045AL  26167.73375830 -.00000051  00000+0 -16898-3 0  9993
2 48801  87.9011 259.2855 0001967  98.3792 261.7561 13.15549008244246
ONEWEB-0239             
1 48802U 21045AM  26167.73850721 -.00000082  00000+0 -25300-3 0  9993
2 48802  87.9000 259.2910 0001669 125.0143 235.1145 13.15548787244284
ONEWEB-0249             
1 48967U 21060A   26167.67290742 -.00000027  00000+0 -10463-3 0  9999
2 48967  87.9099 228.8804 0002073 101.5231 258.6132 13.16595017239543
ONEWEB-0250             
1 48968U 21060B   26167.85473017  .00000017  00000+0  91278-5 0  9990
2 48968  87.9097 226.6016 0002819 114.1146 246.0285 13.25833909240172
ONEWEB-0252             
1 48970U 21060D   26167.70378523  .00000049  00000+0  94783-4 0  9991
2 48970  87.9097 228.8663 0001895  92.1493 267.9854 13.16594057239596
ONEWEB-0253             
1 48971U 21060E   26167.69270257  .00000081  00000+0  17807-3 0  9992
2 48971  87.9097 228.8740 0002060 101.3919 258.7443 13.16593914239520
ONEWEB-0254             
1 48972U 21060F   26167.70220315  .00000061  00000+0  12503-3 0  9991
2 48972  87.9100 228.8696 0001886 106.4248 253.7091 13.16594626239527
ONEWEB-0255             
1 48973U 21060G   26167.66420437 -.00000037  00000+0 -13046-3 0  9992
2 48973  87.9098 228.8840 0001917 101.7118 258.4228 13.16594591239596
ONEWEB-0256             
1 48974U 21060H   26167.69032134  .00000104  00000+0  23907-3 0  9999
2 48974  87.9093 228.8828 0002059  94.3701 265.7666 13.16593728239566
ONEWEB-0257             
1 48975U 21060J   26167.72278031 -.00000047  00000+0 -15670-3 0  9998
2 48975  87.9098 228.8634 0001882  97.6055 262.5290 13.16594947239526
ONEWEB-0258             
1 48976U 21060K   26167.72436615 -.00000053  00000+0 -17155-3 0  9990
2 48976  87.9099 228.8747 0002041  99.3059 260.8303 13.16595057239534
ONEWEB-0259             
1 48977U 21060L   26167.71803523 -.00000029  00000+0 -10840-3 0  9993
2 48977  87.9097 228.8754 0002039 103.3073 256.8285 13.16595337239568
ONEWEB-0260             
1 48978U 21060M   26167.86131557  .00000070  00000+0  15068-3 0  9992
2 48978  87.9092 228.8488 0001971  86.4482 273.6874 13.16594076239567
ONEWEB-0261             
1 48979U 21060N   26167.67922258 -.00000091  00000+0 -27207-3 0  9991
2 48979  87.9093 228.8850 0001681 100.2126 259.9195 13.16595202239598
ONEWEB-0262             
1 48980U 21060P   26167.65945238 -.00000053  00000+0 -17224-3 0  9990
2 48980  87.9096 228.8750 0002087 106.0698 254.0663 13.16594640239558
ONEWEB-0263             
1 48981U 21060Q   26167.69111675  .00000082  00000+0  18161-3 0  9996
2 48981  87.9098 228.8802 0001733 103.7954 256.3370 13.16594835239528
ONEWEB-0264             
1 48982U 21060R   26167.65232946 -.00000076  00000+0 -23148-3 0  9994
2 48982  87.9101 228.8902 0001824  93.3410 266.7929 13.16595947239527
ONEWEB-0266             
1 48984U 21060T   26167.67370354 -.00000100  00000+0 -29604-3 0  9995
2 48984  87.9099 228.8772 0002140  98.6909 261.4465 13.16594044239516
ONEWEB-0267             
1 48985U 21060U   26167.68478655  .00000019  00000+0  15043-4 0  9990
2 48985  87.9098 228.8716 0001826  98.4785 261.6552 13.16594593239523
ONEWEB-0268             
1 48986U 21060V   26167.65310416 -.00000049  00000+0 -16056-3 0  9997
2 48986  87.9104 228.8866 0002027  92.8692 267.2670 13.16596278239780
ONEWEB-0269             
1 48987U 21060W   26167.86211074  .00000086  00000+0  19143-3 0  9990
2 48987  87.9090 228.8484 0002169  93.1786 266.9593 13.16595262239586
ONEWEB-0270             
1 48988U 21060X   26167.65153769 -.00000068  00000+0 -21268-3 0  9997
2 48988  87.9104 228.8892 0001842 107.0903 253.0429 13.16594990239592
ONEWEB-0271             
1 48989U 21060Y   26167.71486852  .00000001  00000+0 -30827-4 0  9995
2 48989  87.9097 228.8668 0001790 101.0272 259.1060 13.16595083239604
ONEWEB-0272             
1 48990U 21060Z   26167.66102740 -.00000048  00000+0 -15899-3 0  9995
2 48990  87.9096 228.8897 0001854  91.0313 269.1030 13.16592626239545
ONEWEB-0273             
1 48991U 21060AA  26167.68320216  .00000036  00000+0  59287-4 0  9993
2 48991  87.9100 228.8842 0001922 100.9260 259.2087 13.16594579239528
ONEWEB-0274             
1 48992U 21060AB  26167.86052272  .00000101  00000+0  23146-3 0  9995
2 48992  87.9089 228.8515 0001922  89.0484 271.0867 13.16594293239584
ONEWEB-0275             
1 48993U 21060AC  26167.69745612  .00000066  00000+0  14019-3 0  9993
2 48993  87.9098 228.8729 0001918  95.9768 264.1581 13.16594250239497
ONEWEB-0276             
1 48994U 21060AD  26167.65470132 -.00000044  00000+0 -14782-3 0  9997
2 48994  87.9097 228.8808 0001968  92.9241 267.2115 13.16594395239502
